
# C41 (GNSS)
1 44864U 19090A   25248.07063811  .00000027  00000+0  00000+0 0  9999
2 44864  56.3051  72.2322 0015481 287.9700 249.9106  1.86231646 38928

# C42 (GNSS)
1 44865U 19090B   25249.56527402  .00000027  00000+0  00000+0 0  9996
2 44865  56.3085  72.2167 0013028 303.7656 245.8165  1.86231506 38931

# C60 (GNSS)
1 45344U 20017A   25250.13948831 -.00000142  00000+0  00000+0 0  9997
2 45344   2.8168  41.8940 0001011 311.8574 122.9904  1.00271637 20427

# C61 (GNSS)
1 45807U 20040A   25249.49108169 -.00000355  00000+0  00000+0 0  9992
2 45807   1.7497  65.4666 0003891 335.2043 232.4014  1.00265638 19229

# C62 (GNSS)
1 56564U 23066A   25250.19488853 -.00000114  00000+0  00000+0 0  9998
2 56564   1.0365 295.6335 0006231 208.8440  72.2712  1.00271894  8555

# C50 (GNSS)
1 58654U 23207A   25249.78590485  .00000024  00000+0  00000+0 0  9994
2 58654  55.4973  71.8815 0000706  40.3386 319.7301  1.86229868 11567

# E24 (GNSS)
1 40889U 15045A   25249.32936725  .00000049  00000+0  00000+0 0  9994
2 40889  55.0420 229.4451 0003471  13.3588 346.6253  1.70473178 62170

# E30 (GNSS)
1 40890U 15045B   25249.55003035  .00000048  00000+0  00000+0 0  9999
2 40890  55.0412 229.4342 0002036 339.8438  20.1217  1.70473161 62208

# E07 (GNSS)
1 41859U 16069A   25248.25265261  .00000029  00000+0  00000+0 0  9998
2 41859  55.3186 108.9779 0002955 341.8093  18.2871  1.70473881 54541

# E08 (GNSS)
1 41175U 15079B   25249.35253935  .00000036  00000+0  00000+0 0  9994
2 41175  55.6491 109.0517 0003202   4.2610 355.8534  1.70473809 60359

# E09 (GNSS)
1 41174U 15079A   25249.71902853  .00000037  00000+0  00000+0 0  9994
2 41174  55.6515 109.0447 0003687 351.3249   8.7813  1.70473915 59943

# E01 (GNSS)
1 41550U 16030B   25249.73342619  .00000047  00000+0  00000+0 0  9991
2 41550  55.1897 229.4870 0004106 246.1155 113.8141  1.70473602 57831

# E02 (GNSS)
1 41549U 16030A   25250.06232498  .00000046  00000+0  00000+0 0  9999
2 41549  55.1899 229.4799 0003385 321.2507  38.6957  1.70473206 57845

# E03 (GNSS)
1 41860U 16069B   25249.27960964  .00000035  00000+0  00000+0 0  9992
2 41860  55.3171 108.9450 0003282  27.7940 332.3347  1.70473986 54812

# E04 (GNSS)
1 41861U 16069C   25249.64735697  .00000036  00000+0  00000+0 0  9998
2 41861  55.3195 108.9423 0002244 309.1224  50.9698  1.70474337 54686

# E05 (GNSS)
1 41862U 16069D   25249.20667354  .00000034  00000+0  00000+0 0  9993
2 41862  55.3171 108.9474 0001362   9.4328 350.6807  1.70473933 54809

# E21 (GNSS)
1 43055U 17079A   25249.69610076  .00000047  00000+0  00000+0 0  9997
2 43055  55.1678 229.3055 0003369 269.2365  90.6974  1.70473926 48153

# E25 (GNSS)
1 43056U 17079B   25249.40087253  .00000049  00000+0  00000+0 0  9994
2 43056  55.1694 229.3136 0004674 278.9587  80.9627  1.70474087 48162

# E27 (GNSS)
1 43057U 17079C   25247.27522067  .00000059  00000+0  00000+0 0  9996
2 43057  55.1672 229.3701 0004059 290.2814  69.6625  1.70474137 48117

# E31 (GNSS)
1 43058U 17079D   25248.66844883  .00000053  00000+0  00000+0 0  9998
2 43058  55.1664 229.3296 0005172 274.9382  84.9818  1.70474046 48162

# E36 (GNSS)
1 43566U 18060C   25247.83854546 -.00000083  00000+0  00000+0 0  9992
2 43566  57.2550 349.4948 0003105 267.5488  92.4428  1.70476187 44323

# E13 (GNSS)
1 43567U 18060D   25243.95332990 -.00000092  00000+0  00000+0 0  9996
2 43567  57.2560 349.6000 0003180 263.0153  96.9725  1.70476312 44249

# E15 (GNSS)
1 43564U 18060A   25243.29200639 -.00000094  00000+0  00000+0 0  9996
2 43564  57.2536 349.6127 0004252 265.1779  94.7974  1.70476398 44221

# E33 (GNSS)
1 43565U 18060B   25246.44411486 -.00000086  00000+0  00000+0 0  9992
2 43565  57.2561 349.5307 0004351 233.9087 126.0763  1.70476035 44328

# E34 (GNSS)
1 49809U 21116A   25246.15763390 -.00000086  00000+0  00000+0 0  9997
2 49809  57.2443 349.4321 0003569 206.4480 157.0617  1.70476454 23291

# E10 (GNSS)
1 49810U 21116B   25240.69587015 -.00000102  00000+0  00000+0 0  9999
2 49810  57.2470 349.5773 0002886 200.1648 163.8976  1.70476645 23221

# R01 (GNSS)
1 36111U 09070A   25249.89877544  .00000057  00000+0  00000+0 0  9992
2 36111  64.8437  80.6477 0001917 350.4240  15.4746  2.13103686122398

# R02 (GNSS)
1 39155U 13019A   25249.47817917  .00000062  00000+0  00000+0 0  9999
2 39155  65.2601  83.1367 0022370 227.1864 132.7047  2.13104540 96231

# R03 (GNSS)
1 37867U 11064A   25249.30461338  .00000061  00000+0  00000+0 0  9998
2 37867  65.1066  82.4666 0021817 231.3887 307.8423  2.13101511107718

# R04 (GNSS)
1 44850U 19088A   25249.12626734  .00000063  00000+0  00000+0 0  9997
2 44850  65.4054  83.2218 0011539 248.1720 111.7857  2.13102003 44666

# R05 (GNSS)
1 43508U 18053A   25249.18181041  .00000063  00000+0  00000+0 0  9990
2 43508  65.4183  83.3913 0006940 215.4707 144.5638  2.13102218 56227

# R06 (GNSS)
1 36112U 09070B   25247.83992508  .00000057  00000+0  00000+0 0  9993
2 36112  64.8279  80.5678 0005744 134.1683 222.3068  2.13101177122349

# R07 (GNSS)
1 37868U 11064B   25249.77129444  .00000060  00000+0  00000+0 0  9998
2 37868  65.1137  82.5276 0018912 231.6806 126.0015  2.13102993107715

# R08 (GNSS)
1 37869U 11064C   25250.29697288  .00000058  00000+0  00000+0 0  9991
2 37869  65.1206  82.5288 0023720 247.9211 109.4403  2.13101774107733

# R09 (GNSS)
1 40315U 14075A   25248.92943082  .00000024  00000+0  00000+0 0  9992
2 40315  63.6172 200.2105 0021407 210.5318 149.3226  2.13101326 83797

# R10 (GNSS)
1 32395U 07065C   25250.16007352  .00000029  00000+0  00000+0 0  9997
2 32395  64.3265 201.5297 0016974 356.7506 186.6435  2.13099963137696

# R11 (GNSS)
1 46805U 20075A   25247.63220769  .00000029  00000+0  00000+0 0  9991
2 46805  64.5990 202.0035 0008522 239.4171 120.4808  2.13099887 37824

# R12 (GNSS)
1 44299U 19030A   25249.80389146  .00000028  00000+0  00000+0 0  9990
2 44299  64.3688 202.1563 0012498 278.2739 258.4234  2.13102011 48883

# R13 (GNSS)
1 32393U 07065A   25249.86647791  .00000028  00000+0  00000+0 0  9996
2 32393  64.3180 201.4704 0001086  31.7250 152.9242  2.13101197137736

# R14 (GNSS)
1 42939U 17055A   25248.75190215  .00000026  00000+0  00000+0 0  9992
2 42939  64.0792 201.5639 0009644 239.3994 120.4843  2.13101909 61910

# R15 (GNSS)
1 43687U 18086A   25249.27930457  .00000027  00000+0  00000+0 0  9997
2 43687  64.2952 202.1787 0010896 257.8640 101.9918  2.13101917 53238

# R16 (GNSS)
1 54377U 22161A   25248.86958146  .00000027  00000+0  00000+0 0  9993
2 54377  64.7407 202.1471 0011087 222.3695 137.5237  2.13102011 21573

# R17 (GNSS)
1 41330U 16008A   25249.85198470 -.00000029  00000+0  00000+0 0  9990
2 41330  65.1862 322.7236 0013160 209.6358 150.3637  2.13102606 74580

# R18 (GNSS)
1 39620U 14012A   25247.08992209 -.00000041  00000+0  00000+0 0  9991
2 39620  65.4608 323.6514 0011634 309.4931  50.4687  2.13103241 89148

# R19 (GNSS)
1 54031U 22130A   25248.55594479 -.00000037  00000+0  00000+0 0  9999
2 54031  64.4344 324.5974 0013119 186.4797 173.5709  2.13101626 22627

# R20 (GNSS)
1 32276U 07052B   25248.61760133 -.00000036  00000+0  00000+0 0  9990
2 32276  65.7490 325.6245 0008710 309.8722  50.4287  2.13103110139020

# R21 (GNSS)
1 40001U 14032A   25249.14045302 -.00000031  00000+0  00000+0 0  9999
2 40001  65.3955 323.3518 0009128 203.7731 156.2563  2.13105941 87401

# R22 (GNSS)
1 52984U 22075A   25246.39070022 -.00000048  00000+0  00000+0 0  9997
2 52984  64.4632 324.5805 0012448 271.1612  88.7573  2.13102219 24602

# R23 (GNSS)
1 36402U 10007C   25247.36026411 -.00000040  00000+0  00000+0 0  9999
2 36402  65.5819 324.1303 0002124 210.0010 136.4523  2.13106255120631

# R24 (GNSS)
1 45358U 20018A   25248.85313396 -.00000031  00000+0  00000+0 0  9998
2 45358  64.5235 322.4040 0011395 236.5723 123.3901  2.13102511 42601

# R25 (GNSS)
1 32275U 07052A   25249.01454617 -.00000035  00000+0  00000+0 0  9990
2 32275  65.7329 325.4889 0005041 225.3013 134.7261  2.13104131139001
